QIANFAN-41              
1 62242U 24232F   25331.20849218  .00000170  00000+0  24513-3 0  9992
2 62242  89.0039  42.7622 0012824 229.5430 130.4604 13.50979787 97158
QIANFAN-42              
1 62243U 24232G   25331.17813906  .00000624  00000+0  26286-3 0  9997
2 62243  89.0029  39.1328 0016964 131.2206 229.0452 14.24466613 99159
QIANFAN-43              
1 62244U 24232H   25331.20431303  .00000126  00000+0  17631-3 0  9990
2 62244  89.0043  42.8273 0014182 235.8577 124.1229 13.50972864 65763
QIANFAN-44              
1 62245U 24232J   25331.19205493  .00000159  00000+0  22851-3 0  9994
2 62245  89.0042  42.6396 0012490 231.9806 128.0219 13.50974902 97233
QIANFAN-45              
1 62246U 24232K   25331.15909154  .00000168  00000+0  24206-3 0  9992
2 62246  89.0045  42.7888 0013158 231.9907 128.0056 13.50978737 97158
QIANFAN-46              
1 62247U 24232L   25331.10975338  .00000152  00000+0  21689-3 0  9990
2 62247  89.0041  42.8635 0013054 238.2625 121.7255 13.50976864 97103
QIANFAN-47              
1 62248U 24232M   25331.11385075  .00000066  00000+0  84065-4 0  9997
2 62248  89.0037  42.7966 0013501 237.4402 122.5446 13.50979004 97139
QIANFAN-48              
1 62249U 24232N   25331.15088388  .00000180  00000+0  25982-3 0  9998
2 62249  89.0041  42.7941 0015693 241.0007 118.9571 13.50974721 97144
